STARLINK-31851          
1 59844U 24097K   26068.00227620 -.00000482  00000+0 -80125-5 0  9999
2 59844  42.9994 278.0740 0001288 263.3021  96.7684 15.27574121101819
FLOCK 4G-10             
1 62670U 25009BP  26068.70827885  .00013952  00000+0  52624-3 0  9995
2 62670  97.3967 150.5883 0003469 341.4844  18.6269 15.27155944121340
